NORAD_CAT_ID,OBJECT_NAME,OBJECT_TYPE,EPOCH,MEAN_MOTION,ECCENTRICITY,INCLINATION,RA_OF_ASC_NODE,ARG_OF_PERICENTER,MEAN_ANOMALY,BSTAR,MEAN_MOTION_DOT,MEAN_MOTION_DDOT,TLE_LINE0,TLE_LINE1,TLE_LINE2,SEMIMAJOR_AXIS,PERIOD,APOGEE,PERIGEE,DECAYED
54779.0,STARLINK-5447,PAYLOAD,2023-08-29 08:09:40,15.08844608,0.0001424,53.2161,214.3019,108.6079,251.5068,6.9668e-05,8.21e-06,0.0,0 STARLINK-5447,1 54779U 22175X   23241.34005313  .00000821  00000-0  69668-4 0  9990,2 54779  53.2161 214.3019 0001424 108.6079 251.5068 15.08844608 38578,6917.866,95.437,540.716,538.746,0.0
54779.0,STARLINK-5447,PAYLOAD,2023-08-30 01:38:56,15.08832104,0.0001311,53.2161,211.0322,89.7964,270.3179,7.8663e-06,-1.63e-06,0.0,0 STARLINK-5447,1 54779U 22175X   23242.06870505 -.00000163  00000-0  78663-5 0  9999,2 54779  53.2161 211.0322 0001311  89.7964 270.3179 15.08832104 38688,6917.905,95.438,540.676,538.863,0.0
54779.0,STARLINK-5447,PAYLOAD,2023-08-30 14:22:01,15.08834699,0.0001422,53.2166,208.6533,92.4544,267.6611,-1.2067e-05,-4.8e-06,0.0,0 STARLINK-5447,1 54779U 22175X   23242.59862497 -.00000480  00000-0 -12067-4 0  9996,2 54779  53.2166 208.6533 0001422  92.4544 267.6611 15.08834699 40928,6917.897,95.438,540.745,538.778,0.0
54779.0,STARLINK-5447,PAYLOAD,2023-08-31 04:40:29,15.08837436,0.0001319,53.216,205.9765,98.3256,261.7886,5.2883e-05,5.54e-06,0.0,0 STARLINK-5447,1 54779U 22175X   23243.19478319  .00000554  00000-0  52883-4 0  9999,2 54779  53.2160 205.9765 0001319  98.3256 261.7886 15.08837436 38859,6917.888,95.438,540.666,538.841,0.0
54779.0,STARLINK-5447,PAYLOAD,2023-08-31 22:09:44,15.08833934,0.0001124,53.2161,202.7062,99.3815,260.7304,5.7104e-05,6.21e-06,0.0,0 STARLINK-5447,1 54779U 22175X   23243.92342806  .00000621  00000-0  57104-4 0  9997,2 54779  53.2161 202.7062 0001124  99.3815 260.7304 15.08833934 41128,6917.899,95.438,540.542,538.986,0.0
54779.0,STARLINK-5447,PAYLOAD,2023-09-01 07:42:02,15.08840767,0.0001315,53.2161,200.9215,96.1662,263.948,9.7274e-05,1.261e-05,0.0,0 STARLINK-5447,1 54779U 22175X   23244.32086482  .00001261  00000-0  97274-4 0  9990,2 54779  53.2161 200.9215 0001315  96.1662 263.9480 15.08840767 39023,6917.878,95.438,540.653,538.833,0.0
54779.0,STARLINK-5447,PAYLOAD,2023-09-01 14:03:35,15.08839479,0.0001335,53.2165,199.7316,93.5006,266.6139,6.6131e-05,7.65e-06,0.0,0 STARLINK-5447,1 54779U 22175X   23244.58582691  .00000765  00000-0  66131-4 0  9997,2 54779  53.2165 199.7316 0001335  93.5006 266.6139 15.08839479 41223,6917.882,95.438,540.671,538.823,0.0
54779.0,STARLINK-5447,PAYLOAD,2023-09-02 05:57:26,15.08844664,0.0001308,53.216,196.7571,88.2143,271.8999,0.00016311,2.309e-05,0.0,0 STARLINK-5447,1 54779U 22175X   23245.24822106  .00002309  00000-0  16311-3 0  9999,2 54779  53.2160 196.7571 0001308  88.2143 271.8999 15.08844664 41326,6917.866,95.437,540.636,538.826,0.0
54779.0,STARLINK-5447,PAYLOAD,2023-09-02 13:54:22,15.08840337,0.0001369,53.2157,195.2697,87.4937,272.6212,0.00011048,1.471e-05,0.0,0 STARLINK-5447,1 54779U 22175X   23245.57942526  .00001471  00000-0  11048-3 0  9995,2 54779  53.2157 195.2697 0001369  87.4937 272.6212 15.08840337 39219,6917.879,95.438,540.691,538.797,0.0
54779.0,STARLINK-5447,PAYLOAD,2023-09-02 20:15:55,15.08827228,0.0001611,53.2155,194.0808,93.5089,266.6088,0.00023236,3.411e-05,0.0,0 STARLINK-5447,1 54779U 22175X   23245.84438954  .00003411  00000-0  23236-3 0  9998,2 54779  53.2155 194.0808 0001611  93.5089 266.6088 15.08827228 41417,6917.919,95.438,540.899,538.67,0.0
54779.0,STARLINK-5447,PAYLOAD,2023-09-03 13:45:09,15.08839671,0.0001366,53.2163,190.8091,93.0001,267.1148,3.3191e-05,2.4e-06,0.0,0 STARLINK-5447,1 54779U 22175X   23246.57302784  .00000240  00000-0  33191-4 0  9999,2 54779  53.2163 190.8091 0001366  93.0001 267.1148 15.08839671 41520,6917.881,95.438,540.691,538.801,0.0
54779.0,STARLINK-5447,PAYLOAD,2023-09-04 02:28:14,15.08839572,0.0001672,53.2164,188.4319,88.5544,271.564,-3.8748e-05,-9.05e-06,0.0,0 STARLINK-5447,1 54779U 22175X   23247.10295133 -.00000905  00000-0 -38748-4 0  9991,2 54779  53.2164 188.4319 0001672  88.5544 271.5640 15.08839572 39442,6917.882,95.438,540.903,538.59,0.0
54779.0,STARLINK-5447,PAYLOAD,2023-09-04 05:39:00,15.08839676,0.0001683,53.2164,187.837,89.8073,270.3112,7.231e-05,8.63e-06,0.0,0 STARLINK-5447,1 54779U 22175X   23247.23542786  .00000863  00000-0  72310-4 0  9998,2 54779  53.2164 187.8370 0001683  89.8073 270.3112 15.08839676 41624,6917.881,95.438,540.911,538.582,0.0
54779.0,STARLINK-5447,PAYLOAD,2023-09-05 05:29:47,15.08845845,0.0001545,53.2163,183.3752,91.7389,268.378,3.8615e-05,3.27e-06,0.0,0 STARLINK-5447,1 54779U 22175X   23248.22902566  .00000327  00000-0  38615-4 0  9999,2 54779  53.2163 183.3752 0001545  91.7389 268.3780 15.08845845 39616,6917.863,95.437,540.796,538.659,0.0
54779.0,STARLINK-5447,PAYLOAD,2023-09-06 02:09:49,15.08821774,0.0001414,53.2158,179.5097,100.0079,260.1073,0.00034488,5.202e-05,0.0,0 STARLINK-5447,1 54779U 22175X   23249.09015515  .00005202  00000-0  34488-3 0  9994,2 54779  53.2158 179.5097 0001414 100.0079 260.1073 15.08821774 39748,6917.936,95.439,540.779,538.823,0.0
54779.0,STARLINK-5447,PAYLOAD,2023-09-06 05:20:35,15.08842057,0.0001442,53.216,178.9144,94.7517,265.364,7.601e-05,9.22e-06,0.0,0 STARLINK-5447,1 54779U 22175X   23249.22262765  .00000922  00000-0  76010-4 0  9992,2 54779  53.2160 178.9144 0001442  94.7517 265.3640 15.08842057 39760,6917.874,95.437,540.737,538.742,0.0
54779.0,STARLINK-5447,PAYLOAD,2023-09-07 03:35:59,15.08841883,0.0001474,53.217,174.752,89.4352,270.6809,2.1252e-05,5e-07,0.0,0 STARLINK-5447,1 54779U 22175X   23250.14998995  .00000050  00000-0  21252-4 0  9996,2 54779  53.2170 174.7520 0001474  89.4352 270.6809 15.08841883 42065,6917.875,95.437,540.759,538.72,0.0
54779.0,STARLINK-5447,PAYLOAD,2023-09-08 01:51:23,15.0885325,0.0001336,53.2179,170.592,95.0918,265.0227,-0.00016604,-2.93e-05,0.0,0 STARLINK-5447,1 54779U 22175X   23251.07735076 -.00002930  00000-0 -16604-3 0  9993,2 54779  53.2179 170.5920 0001336  95.0918 265.0227 15.08853250 42209,6917.84,95.437,540.629,538.781,0.0
54779.0,STARLINK-5447,PAYLOAD,2023-09-08 17:45:14,15.08835198,0.0001312,53.218,167.6182,96.3767,263.7374,4.7676e-05,4.71e-06,0.0,0 STARLINK-5447,1 54779U 22175X   23251.73975502  .00000471  00000-0  47676-4 0  9996,2 54779  53.2180 167.6182 0001312  96.3767 263.7374 15.08835198 40148,6917.895,95.438,540.668,538.852,0.0
54779.0,STARLINK-5447,PAYLOAD,2023-09-09 04:52:56,15.08849269,0.0001333,53.2173,165.5349,90.4222,269.6923,-1.9234e-05,-5.94e-06,0.0,0 STARLINK-5447,1 54779U 22175X   23252.20343018 -.00000594  00000-0 -19234-4 0  9997,2 54779  53.2173 165.5349 0001333  90.4222 269.6923 15.08849269 40213,6917.852,95.437,540.639,538.795,0.0
54779.0,STARLINK-5447,PAYLOAD,2023-09-09 11:14:29,15.08835259,0.0001429,53.2174,164.3448,85.218,274.8976,4.417e-05,4.15e-06,0.0,0 STARLINK-5447,1 54779U 22175X   23252.46839772  .00000415  00000-0  44170-4 0  9999,2 54779  53.2174 164.3448 0001429  85.2180 274.8976 15.08835259 42416,6917.895,95.438,540.748,538.771,0.0
54779.0,STARLINK-5447,PAYLOAD,2023-09-10 01:32:57,15.08844372,0.0001379,53.2175,161.6685,84.0005,276.1144,3.7414e-05,3.08e-06,0.0,0 STARLINK-5447,1 54779U 22175X   23253.06455388  .00000308  00000-0  37414-4 0  9997,2 54779  53.2175 161.6685 0001379  84.0005 276.1144 15.08844372 40345,6917.867,95.437,540.686,538.778,0.0
54779.0,STARLINK-5447,PAYLOAD,2023-09-10 04:43:43,15.08855233,0.0001437,53.2181,161.0726,76.6955,283.4197,-7.0333e-05,-1.408e-05,0.0,0 STARLINK-5447,1 54779U 22175X   23253.19702985 -.00001408  00000-0 -70333-4 0  9990,2 54779  53.2181 161.0726 0001437  76.6955 283.4197 15.08855233 40367,6917.834,95.437,540.693,538.705,0.0
54779.0,STARLINK-5447,PAYLOAD,2023-09-10 17:26:49,15.0883635,0.0001295,53.2166,158.6932,89.7872,270.3269,1.8639e-05,9e-08,0.0,0 STARLINK-5447,1 54779U 22175X   23253.72696071  .00000009  00000-0  18639-4 0  9992,2 54779  53.2166 158.6932 0001295  89.7872 270.3269 15.08836350 40449,6917.892,95.438,540.652,538.861,0.0
54779.0,STARLINK-5447,PAYLOAD,2023-09-11 02:59:07,15.08842871,0.0001327,53.2167,156.9099,88.0375,272.0769,7.7342e-05,9.43e-06,0.0,0 STARLINK-5447,1 54779U 22175X   23254.12439506  .00000943  00000-0  77342-4 0  9998,2 54779  53.2167 156.9099 0001327  88.0375 272.0769 15.08842871 40507,6917.872,95.437,540.655,538.819,0.0
54779.0,STARLINK-5447,PAYLOAD,2023-09-11 10:56:03,15.08844371,0.0001398,53.2168,155.4239,87.5391,272.5761,4.9765e-05,5.04e-06,0.0,0 STARLINK-5447,1 54779U 22175X   23254.45559481  .00000504  00000-0  49765-4 0  9990,2 54779  53.2168 155.4239 0001398  87.5391 272.5761 15.08844371 42717,6917.867,95.437,540.699,538.765,0.0
54779.0,STARLINK-5447,PAYLOAD,2023-09-12 02:49:54,15.08852008,0.0001361,53.2161,152.4506,78.4997,281.6148,6.9598e-05,8.2e-06,0.0,0 STARLINK-5447,1 54779U 22175X   23255.11798845  .00000820  00000-0  69598-4 0  9990,2 54779  53.2161 152.4506 0001361  78.4997 281.6148 15.08852008 42812,6917.844,95.437,540.65,538.767,0.0
54779.0,STARLINK-5447,PAYLOAD,2023-09-12 20:19:09,15.08841513,0.0001298,53.2159,149.1796,87.9165,272.1976,1.7563e-05,-8e-08,0.0,0 STARLINK-5447,1 54779U 22175X   23255.84663622 -.00000008  00000-0  17563-4 0  9998,2 54779  53.2159 149.1796 0001298  87.9165 272.1976 15.08841513 42929,6917.876,95.437,540.639,538.843,0.0
54779.0,STARLINK-5447,PAYLOAD,2023-09-12 23:29:55,15.08845514,0.0001316,53.2168,148.5847,89.0999,271.0144,3.651e-05,2.93e-06,0.0,0 STARLINK-5447,1 54779U 22175X   23255.97911286  .00000293  00000-0  36510-4 0  9992,2 54779  53.2168 148.5847 0001316  89.0999 271.0144 15.08845514 40780,6917.864,95.437,540.639,538.818,0.0
54779.0,STARLINK-5447,PAYLOAD,2023-09-13 21:45:18,15.08847693,0.0001347,53.2167,144.4202,91.4056,268.709,5.6392e-05,6.1e-06,0.0,0 STARLINK-5447,1 54779U 22175X   23256.90646738  .00000610  00000-0  56392-4 0  9996,2 54779  53.2167 144.4202 0001347  91.4056 268.7090 15.08847693 43083,6917.857,95.437,540.654,538.79,0.0
